STARLINK-5377           
1 56141U 23046BB  25327.18178056 -.00000329  00000+0 -93127-5 0  9999
2 56141  43.0014   4.4171 0001060 214.7018 145.3755 15.02530544146198
STARLINK-5376           
1 56142U 23046BC  25327.45879176  .00000008  00000+0  15683-4 0  9993
2 56142  43.0028   3.0576 0001023 253.4906 106.5824 15.02531486146230
STARLINK-5016           
1 56143U 23046BD  25327.10975161 -.00000024  00000+0  13271-4 0  9997
2 56143  43.0059   4.7452 0001620 270.0605  90.0052 15.02533831146180
STARLINK-5374           
1 56144U 23046BE  25327.18955105 -.00000565  00000+0 -26770-4 0  9991
2 56144  43.0066   4.4850 0001614 277.7078  82.3582 15.02530963146195
STARLINK-5111           
1 56146U 23046BG  25327.44435947 -.00000222  00000+0 -13738-5 0  9990
2 56146  43.0049   2.9522 0001352 264.5639  95.5049 15.02533694146236
STARLINK-5140           
1 56147U 23046BH  25328.00037117 -.00000016  00000+0  13871-4 0  9998
2 56147  43.0047 322.0179 0001015 248.4591 111.6143 15.02533434146757
STARLINK-5089           
1 56148U 23046BJ  25328.00370366  .00002107  00000+0  17099-3 0  9992
2 56148  43.0084 322.0455 0001295 276.9632  83.1063 15.02546589146757
STARLINK-30107          
1 56287U 23056B   25327.33668427 -.00000428  00000+0 -16585-4 0  9996
2 56287  43.0033  68.3312 0001281 274.0053  86.0643 15.02530815144072
STARLINK-30106          
1 56288U 23056C   25327.30338397  .00000074  00000+0  20530-4 0  9994
2 56288  43.0045  68.1008 0001304 267.5882  92.4811 15.02536116144022
STARLINK-30095          
1 56289U 23056D   25327.20089265  .00000305  00000+0  37643-4 0  9991
2 56289  43.0057  42.8943 0001443 263.9630  96.1048 15.02533220144305
STARLINK-30103          
1 56290U 23056E   25327.36653138 -.00000142  00000+0  45924-5 0  9998
2 56290  43.0018  67.7126 0001151 238.1996 121.8734 15.02531416144031
STARLINK-30113          
1 56291U 23056F   25327.37318803  .00000245  00000+0  33230-4 0  9996
2 56291  43.0037  67.7557 0001320 253.2965 106.7732 15.02534186144030
STARLINK-30098          
1 56292U 23056G   25327.29673176  .00000658  00000+0  63812-4 0  9992
2 56292  43.0045  68.0419 0001472 273.7452  86.3222 15.02530973144023
STARLINK-30090          
1 56293U 23056H   25327.35665560  .00000040  00000+0  18067-4 0  9995
2 56293  43.0047  68.4760 0001544 275.0983  84.9683 15.02535695144024
STARLINK-30049          
1 56294U 23056J   25327.28684484 -.00000203  00000+0  55487-7 0  9996
2 56294  43.0033  68.7537 0001279 272.2306  87.8390 15.02532872144018
STARLINK-30083          
1 56295U 23056K   25327.28068754 -.00000013  00000+0  14086-4 0  9999
2 56295  43.0045  42.6174 0001438 283.7137  76.3546 15.02533939144310
STARLINK-30089          
1 56296U 23056L   25327.21446781  .00000264  00000+0  34645-4 0  9993
2 56296  43.0070  29.9424 0002331 274.0745  85.9831 15.02535502144452
