[{"OBJECT_NAME":"STARLINK-5377","OBJECT_ID":"2023-046BB","EPOCH":"2025-11-23T04:21:45.840384","MEAN_MOTION":15.02530544,"ECCENTRICITY":0.00010605,"INCLINATION":43.0014,"RA_OF_ASC_NODE":4.4171,"ARG_OF_PERICENTER":214.7018,"MEAN_ANOMALY":145.3755,"EPHEMERIS_TYPE":0,"CLASSIFICATION_TYPE":"U","NORAD_CAT_ID":56141,"ELEMENT_SET_NO":999,"REV_AT_EPOCH":14619,"BSTAR":-9.312675e-6,"MEAN_MOTION_DOT":-3.29e-6,"MEAN_MOTION_DDOT":0},{"OBJECT_NAME":"STARLINK-5376","OBJECT_ID":"2023-046BC","EPOCH":"2025-11-23T11:00:39.608064","MEAN_MOTION":15.02531486,"ECCENTRICITY":0.0001023,"INCLINATION":43.0028,"RA_OF_ASC_NODE":3.0576,"ARG_OF_PERICENTER":253.4906,"MEAN_ANOMALY":106.5824,"EPHEMERIS_TYPE":0,"CLASSIFICATION_TYPE":"U","NORAD_CAT_ID":56142,"ELEMENT_SET_NO":999,"REV_AT_EPOCH":14623,"BSTAR":1.5683e-5,"MEAN_MOTION_DOT":8.0e-8,"MEAN_MOTION_DDOT":0},{"OBJECT_NAME":"STARLINK-5016","OBJECT_ID":"2023-046BD","EPOCH":"2025-11-23T02:38:02.539104","MEAN_MOTION":15.02533831,"ECCENTRICITY":0.00016203,"INCLINATION":43.0059,"RA_OF_ASC_NODE":4.7452,"ARG_OF_PERICENTER":270.0605,"MEAN_ANOMALY":90.0052,"EPHEMERIS_TYPE":0,"CLASSIFICATION_TYPE":"U","NORAD_CAT_ID":56143,"ELEMENT_SET_NO":999,"REV_AT_EPOCH":14618,"BSTAR":1.3270796e-5,"MEAN_MOTION_DOT":-2.4e-7,"MEAN_MOTION_DDOT":0},{"OBJECT_NAME":"STARLINK-5374","OBJECT_ID":"2023-046BE","EPOCH":"2025-11-23T04:32:57.210720","MEAN_MOTION":15.02530963,"ECCENTRICITY":0.00016143,"INCLINATION":43.0066,"RA_OF_ASC_NODE":4.485,"ARG_OF_PERICENTER":277.7078,"MEAN_ANOMALY":82.3582,"EPHEMERIS_TYPE":0,"CLASSIFICATION_TYPE":"U","NORAD_CAT_ID":56144,"ELEMENT_SET_NO":999,"REV_AT_EPOCH":14619,"BSTAR":-2.6770348e-5,"MEAN_MOTION_DOT":-5.65e-6,"MEAN_MOTION_DDOT":0},{"OBJECT_NAME":"STARLINK-5111","OBJECT_ID":"2023-046BG","EPOCH":"2025-11-23T10:39:52.658208","MEAN_MOTION":15.02533694,"ECCENTRICITY":0.0001352,"INCLINATION":43.0049,"RA_OF_ASC_NODE":2.9522,"ARG_OF_PERICENTER":264.5639,"MEAN_ANOMALY":95.5049,"EPHEMERIS_TYPE":0,"CLASSIFICATION_TYPE":"U","NORAD_CAT_ID":56146,"ELEMENT_SET_NO":999,"REV_AT_EPOCH":14623,"BSTAR":-1.3738e-6,"MEAN_MOTION_DOT":-2.22e-6,"MEAN_MOTION_DDOT":0},{"OBJECT_NAME":"STARLINK-5140","OBJECT_ID":"2023-046BH","EPOCH":"2025-11-24T00:00:32.069088","MEAN_MOTION":15.02533434,"ECCENTRICITY":0.0001015,"INCLINATION":43.0047,"RA_OF_ASC_NODE":322.0179,"ARG_OF_PERICENTER":248.4591,"MEAN_ANOMALY":111.6143,"EPHEMERIS_TYPE":0,"CLASSIFICATION_TYPE":"U","NORAD_CAT_ID":56147,"ELEMENT_SET_NO":999,"REV_AT_EPOCH":14675,"BSTAR":1.3871e-5,"MEAN_MOTION_DOT":-1.6e-7,"MEAN_MOTION_DDOT":0},{"OBJECT_NAME":"STARLINK-5089","OBJECT_ID":"2023-046BJ","EPOCH":"2025-11-24T00:05:19.996224","MEAN_MOTION":15.02546589,"ECCENTRICITY":0.0001295,"INCLINATION":43.0084,"RA_OF_ASC_NODE":322.0455,"ARG_OF_PERICENTER":276.9632,"MEAN_ANOMALY":83.1063,"EPHEMERIS_TYPE":0,"CLASSIFICATION_TYPE":"U","NORAD_CAT_ID":56148,"ELEMENT_SET_NO":999,"REV_AT_EPOCH":14675,"BSTAR":0.00017099,"MEAN_MOTION_DOT":2.107e-5,"MEAN_MOTION_DDOT":0},{"OBJECT_NAME":"STARLINK-30107","OBJECT_ID":"2023-056B","EPOCH":"2025-11-23T08:04:49.520928","MEAN_MOTION":15.02530815,"ECCENTRICITY":0.0001281,"INCLINATION":43.0033,"RA_OF_ASC_NODE":68.3312,"ARG_OF_PERICENTER":274.0053,"MEAN_ANOMALY":86.0643,"EPHEMERIS_TYPE":0,"CLASSIFICATION_TYPE":"U","NORAD_CAT_ID":56287,"ELEMENT_SET_NO":999,"REV_AT_EPOCH":14407,"BSTAR":-1.6585e-5,"MEAN_MOTION_DOT":-4.28e-6,"MEAN_MOTION_DDOT":0},{"OBJECT_NAME":"STARLINK-30106","OBJECT_ID":"2023-056C","EPOCH":"2025-11-23T07:16:52.375008","MEAN_MOTION":15.02536116,"ECCENTRICITY":0.0001304,"INCLINATION":43.0045,"RA_OF_ASC_NODE":68.1008,"ARG_OF_PERICENTER":267.5882,"MEAN_ANOMALY":92.4811,"EPHEMERIS_TYPE":0,"CLASSIFICATION_TYPE":"U","NORAD_CAT_ID":56288,"ELEMENT_SET_NO":999,"REV_AT_EPOCH":14402,"BSTAR":2.053e-5,"MEAN_MOTION_DOT":7.4e-7,"MEAN_MOTION_DDOT":0},{"OBJECT_NAME":"STARLINK-30095","OBJECT_ID":"2023-056D","EPOCH":"2025-11-23T04:49:17.124960","MEAN_MOTION":15.0253322,"ECCENTRICITY":0.0001443,"INCLINATION":43.0057,"RA_OF_ASC_NODE":42.8943,"ARG_OF_PERICENTER":263.963,"MEAN_ANOMALY":96.1048,"EPHEMERIS_TYPE":0,"CLASSIFICATION_TYPE":"U","NORAD_CAT_ID":56289,"ELEMENT_SET_NO":999,"REV_AT_EPOCH":14430,"BSTAR":3.7642723e-5,"MEAN_MOTION_DOT":3.05e-6,"MEAN_MOTION_DDOT":0},{"OBJECT_NAME":"STARLINK-30103","OBJECT_ID":"2023-056E","EPOCH":"2025-11-23T08:47:48.311232","MEAN_MOTION":15.02531416,"ECCENTRICITY":0.0001151,"INCLINATION":43.0018,"RA_OF_ASC_NODE":67.7126,"ARG_OF_PERICENTER":238.1996,"MEAN_ANOMALY":121.8734,"EPHEMERIS_TYPE":0,"CLASSIFICATION_TYPE":"U","NORAD_CAT_ID":56290,"ELEMENT_SET_NO":999,"REV_AT_EPOCH":14403,"BSTAR":4.5924e-6,"MEAN_MOTION_DOT":-1.42e-6,"MEAN_MOTION_DDOT":0},{"OBJECT_NAME":"STARLINK-30113","OBJECT_ID":"2023-056F","EPOCH":"2025-11-23T08:57:23.445792","MEAN_MOTION":15.02534186,"ECCENTRICITY":0.000132,"INCLINATION":43.0037,"RA_OF_ASC_NODE":67.7557,"ARG_OF_PERICENTER":253.2965,"MEAN_ANOMALY":106.7732,"EPHEMERIS_TYPE":0,"CLASSIFICATION_TYPE":"U","NORAD_CAT_ID":56291,"ELEMENT_SET_NO":999,"REV_AT_EPOCH":14403,"BSTAR":3.323e-5,"MEAN_MOTION_DOT":2.45e-6,"MEAN_MOTION_DDOT":0},{"OBJECT_NAME":"STARLINK-30098","OBJECT_ID":"2023-056G","EPOCH":"2025-11-23T07:07:17.624064","MEAN_MOTION":15.02530973,"ECCENTRICITY":0.0001472,"INCLINATION":43.0045,"RA_OF_ASC_NODE":68.0419,"ARG_OF_PERICENTER":273.7452,"MEAN_ANOMALY":86.3222,"EPHEMERIS_TYPE":0,"CLASSIFICATION_TYPE":"U","NORAD_CAT_ID":56292,"ELEMENT_SET_NO":999,"REV_AT_EPOCH":14402,"BSTAR":6.3812e-5,"MEAN_MOTION_DOT":6.58e-6,"MEAN_MOTION_DDOT":0},{"OBJECT_NAME":"STARLINK-30090","OBJECT_ID":"2023-056H","EPOCH":"2025-11-23T08:33:35.043840","MEAN_MOTION":15.02535695,"ECCENTRICITY":0.0001544,"INCLINATION":43.0047,"RA_OF_ASC_NODE":68.476,"ARG_OF_PERICENTER":275.0983,"MEAN_ANOMALY":84.9683,"EPHEMERIS_TYPE":0,"CLASSIFICATION_TYPE":"U","NORAD_CAT_ID":56293,"ELEMENT_SET_NO":999,"REV_AT_EPOCH":14402,"BSTAR":1.8067e-5,"MEAN_MOTION_DOT":4.0e-7,"MEAN_MOTION_DDOT":0},{"OBJECT_NAME":"STARLINK-30049","OBJECT_ID":"2023-056J","EPOCH":"2025-11-23T06:53:03.394176","MEAN_MOTION":15.02532872,"ECCENTRICITY":0.0001279,"INCLINATION":43.0033,"RA_OF_ASC_NODE":68.7537,"ARG_OF_PERICENTER":272.2306,"MEAN_ANOMALY":87.839,"EPHEMERIS_TYPE":0,"CLASSIFICATION_TYPE":"U","NORAD_CAT_ID":56294,"ELEMENT_SET_NO":999,"REV_AT_EPOCH":14401,"BSTAR":5.5487e-8,"MEAN_MOTION_DOT":-2.03e-6,"MEAN_MOTION_DDOT":0},{"OBJECT_NAME":"STARLINK-30083","OBJECT_ID":"2023-056K","EPOCH":"2025-11-23T06:44:11.403456","MEAN_MOTION":15.02533939,"ECCENTRICITY":0.00014386,"INCLINATION":43.0045,"RA_OF_ASC_NODE":42.6174,"ARG_OF_PERICENTER":283.7137,"MEAN_ANOMALY":76.3546,"EPHEMERIS_TYPE":0,"CLASSIFICATION_TYPE":"U","NORAD_CAT_ID":56295,"ELEMENT_SET_NO":999,"REV_AT_EPOCH":14431,"BSTAR":1.4085523e-5,"MEAN_MOTION_DOT":-1.3e-7,"MEAN_MOTION_DDOT":0},{"OBJECT_NAME":"STARLINK-30089","OBJECT_ID":"2023-056L","EPOCH":"2025-11-23T05:08:50.018784","MEAN_MOTION":15.02535502,"ECCENTRICITY":0.00023319,"INCLINATION":43.007,"RA_OF_ASC_NODE":29.9424,"ARG_OF_PERICENTER":274.0745,"MEAN_ANOMALY":85.9831,"EPHEMERIS_TYPE":0,"CLASSIFICATION_TYPE":"U","NORAD_CAT_ID":56296,"ELEMENT_SET_NO":999,"REV_AT_EPOCH":14445,"BSTAR":3.4645113e-5,"MEAN_MOTION_DOT":2.64e-6,"MEAN_MOTION_DDOT":0}]
